{
"type": "FeatureCollection",
"name": "my_area1",
"crs": { "type": "name", "properties": { "name": "urn:ogc:def:crs:EPSG::3067" } },
"features": [
{ "type": "Feature", "properties": { "type": "puzzle", "Name": null, "Shape_Area": 1, "Shape_Leng": null }, "geometry": { "type": "Polygon", "coordinates": [ [ [ 380279.39000000001397, 4981713.929999999701977 ], [ 380279.39000000001397, 5026899.379999999888241 ], [ 470057.5, 5026899.379999999888241 ], [ 470057.5, 4981713.929999999701977 ], [ 380279.39000000001397, 4981713.929999999701977 ] ] ] } }
]
}
