{
"type": "FeatureCollection",
"name": "2areas",
"crs": { "type": "name", "properties": { "name": "urn:ogc:def:crs:OGC:1.3:CRS84" } },
"features": [
{ "type": "Feature", "properties": { "type": "puzzle" }, "geometry": { "type": "Polygon", "coordinates": [ [ [ 15417353.603184744715691, 4992086.11948942951858 ], [ 15417006.921326288953424, 5013580.394713694229722 ], [ 15437807.832833642140031, 5013695.955333179794252 ], [ 15438385.635931069031358, 4991739.437630973756313 ], [ 15417353.603184744715691, 4992086.11948942951858 ] ] ] } }
]
}
