{
"type": "FeatureCollection",
"name": "2trace",
"crs": { "type": "name", "properties": { "name": "urn:ogc:def:crs:OGC:1.3:CRS84" } },
"features": [
{ "type": "Feature", "properties": { "type": 86 }, "geometry": { "type": "LineString", "coordinates": [ [ 15421459.02, 5008521.519999999552965 ], [ 15423133.2, 5007264.910000000149012 ], [ 15423407.61, 5007059.54 ], [ 15423670.55, 5006846.320000000298023 ], [ 15423910.71, 5006617.25 ], [ 15424116.79, 5006364.349999999627471 ], [ 15424251.49, 5006141.549999999813735 ], [ 15424365.15, 5005903.660000000149012 ], [ 15424465.87, 5005655.71 ], [ 15424561.75, 5005402.690000000409782 ], [ 15424660.89, 5005149.629999999888241 ], [ 15424776.07, 5004889.490000000223517 ], [ 15424906.58, 5004639.339999999850988 ], [ 15425055.51, 5004403.490000000223517 ], [ 15425225.93, 5004186.230000000447035 ], [ 15425471.9, 5003941.92 ], [ 15425741.8, 5003717.200000000186265 ], [ 15426021.17, 5003495.099999999627471 ], [ 15426243.95, 5003313.400000000372529 ], [ 15426471.4, 5003145.320000000298023 ], [ 15426711.77, 5003013.400000000372529 ], [ 15426939.51, 5002941.200000000186265 ], [ 15427179.94, 5002906.990000000223517 ], [ 15427429.49, 5002902.879999999888241 ], [ 15427684.65, 5002921.019999999552965 ], [ 15427941.87, 5002953.5 ], [ 15428197.6, 5002992.46 ], [ 15428442.35, 5003030.25 ], [ 15428683.32, 5003066.28000000026077 ], [ 15428921.66, 5003100.03000000026077 ], [ 15429158.52, 5003130.980000000447035 ], [ 15429395.06, 5003158.620000000111759 ], [ 15429632.43, 5003182.42 ], [ 15429871.78, 5003201.889999999664724 ], [ 15430102.92, 5003215.509999999776483 ], [ 15430335.15, 5003221.450000000186265 ], [ 15430566.91, 5003216.379999999888241 ], [ 15430796.65, 5003197.009999999776483 ], [ 15431022.78, 5003160.0 ], [ 15431279.36, 5003092.46999999973923 ], [ 15431530.27, 5003003.070000000298023 ], [ 15431777.08, 5002898.08 ], [ 15432021.36, 5002783.820000000298023 ], [ 15432264.68, 5002666.570000000298023 ], [ 15432508.62, 5002552.639999999664724 ], [ 15432747.7, 5002449.320000000298023 ], [ 15432988.12, 5002351.190000000409782 ], [ 15433229.46, 5002254.309999999590218 ], [ 15433471.27, 5002154.71999999973923 ], [ 15433728.14, 5002044.629999999888241 ], [ 15433986.76, 5001939.990000000223517 ], [ 15434249.23, 5001853.700000000186265 ], [ 15434517.64, 5001798.679999999701977 ], [ 15434758.35, 5001784.21999999973923 ], [ 15435001.38, 5001799.589999999850988 ], [ 15435243.2, 5001840.679999999701977 ], [ 15435480.29, 5001903.400000000372529 ], [ 15435736.09, 5001994.410000000149012 ], [ 15435982.79, 5002104.179999999701977 ], [ 15436221.93, 5002229.58 ], [ 15436455.04, 5002367.480000000447035 ], [ 15436683.66, 5002514.75 ], [ 15436909.31, 5002668.269999999552965 ], [ 15437133.55, 5002824.910000000149012 ] ] } },
{ "type": "Feature", "properties": { "type": 88 }, "geometry": { "type": "LineString", "coordinates": [ [ 15419031.46, 5004144.339999999850988 ], [ 15419270.94, 5004126.650000000372529 ], [ 15419510.47, 5004109.379999999888241 ], [ 15419750.21, 5004092.990000000223517 ], [ 15419990.28, 5004077.910000000149012 ], [ 15420230.83, 5004064.589999999850988 ], [ 15420472.0, 5004053.46999999973923 ], [ 15420713.93, 5004045.0 ], [ 15420956.77, 5004039.629999999888241 ], [ 15421217.2, 5004037.889999999664724 ], [ 15421478.0, 5004041.360000000335276 ], [ 15421738.5, 5004051.21999999973923 ], [ 15421998.06, 5004068.679999999701977 ], [ 15422256.01, 5004094.940000000409782 ], [ 15422511.72, 5004131.190000000409782 ], [ 15422764.51, 5004178.639999999664724 ], [ 15423013.75, 5004238.46999999973923 ], [ 15423258.77, 5004311.889999999664724 ], [ 15423507.61, 5004402.879999999888241 ], [ 15423751.95, 5004507.059999999590218 ], [ 15423992.71, 5004621.79 ], [ 15424230.81, 5004744.46 ], [ 15424467.18, 5004872.410000000149012 ], [ 15424702.75, 5005003.019999999552965 ] ] } },
{ "type": "Feature", "properties": { "type": 91 }, "geometry": { "type": "LineString", "coordinates": [ [ 15421207.9, 5008961.33 ], [ 15421259.26, 5008748.379999999888241 ], [ 15421309.28, 5008535.320000000298023 ], [ 15421356.64, 5008321.92 ], [ 15421400.02, 5008107.96999999973923 ], [ 15421438.1, 5007893.21999999973923 ], [ 15421473.85, 5007647.08 ], [ 15421501.9, 5007399.96999999973923 ], [ 15421523.22, 5007151.990000000223517 ], [ 15421538.77, 5006903.259999999776483 ], [ 15421549.5, 5006653.900000000372529 ], [ 15421556.4, 5006404.0 ], [ 15421560.41, 5006153.690000000409782 ], [ 15421562.51, 5005903.08 ], [ 15421563.66, 5005652.269999999552965 ] ] } },
{ "type": "Feature", "properties": { "type": 92 }, "geometry": { "type": "LineString", "coordinates": [ [ 15420056.9, 5005338.120000000111759 ], [ 15420293.85, 5005481.240000000223517 ], [ 15420528.05, 5005627.809999999590218 ], [ 15420756.86, 5005781.360000000335276 ], [ 15420977.7, 5005945.480000000447035 ], [ 15421171.05, 5006106.549999999813735 ], [ 15421358.36, 5006275.360000000335276 ], [ 15421542.73, 5006448.120000000111759 ] ] } },
{ "type": "Feature", "properties": { "type": 93 }, "geometry": { "type": "LineString", "coordinates": [ [ 15422735.59, 5007537.179999999701977 ], [ 15422653.33, 5007318.389999999664724 ], [ 15422572.61, 5007099.230000000447035 ], [ 15422494.89, 5006879.129999999888241 ], [ 15422421.68, 5006657.559999999590218 ], [ 15422345.89, 5006407.179999999701977 ], [ 15422274.16, 5006155.559999999590218 ], [ 15422202.95, 5005903.620000000111759 ], [ 15422128.7, 5005652.269999999552965 ], [ 15422056.18, 5005422.759999999776483 ], [ 15421983.28, 5005193.53000000026077 ], [ 15421915.07, 5004963.299999999813735 ], [ 15421856.64, 5004730.759999999776483 ], [ 15421814.86, 5004515.910000000149012 ], [ 15421781.37, 5004299.21999999973923 ], [ 15421752.0, 5004081.509999999776483 ] ] } },
{ "type": "Feature", "properties": { "type": 94 }, "geometry": { "type": "LineString", "coordinates": [ [ 15421542.73, 5006636.610000000335276 ], [ 15421798.92, 5006787.46999999973923 ], [ 15422065.91, 5006908.879999999888241 ], [ 15422292.65, 5006970.679999999701977 ], [ 15422526.31, 5007013.589999999850988 ] ] } },
{ "type": "Feature", "properties": { "type": 95 }, "geometry": { "type": "LineString", "coordinates": [ [ 15422484.46, 5006217.740000000223517 ], [ 15423823.8, 5006720.389999999664724 ] ] } },
{ "type": "Feature", "properties": { "type": 96 }, "geometry": { "type": "LineString", "coordinates": [ [ 15429704.37, 5011055.67 ], [ 15429525.34, 5010805.46 ], [ 15429346.54, 5010555.17 ], [ 15429168.16, 5010304.679999999701977 ], [ 15428990.38, 5010053.839999999850988 ], [ 15428813.37, 5009802.53000000026077 ], [ 15428637.33, 5009550.610000000335276 ], [ 15428462.44, 5009297.950000000186265 ], [ 15428288.89, 5009044.410000000149012 ], [ 15428116.84, 5008789.870000000111759 ], [ 15427946.5, 5008534.190000000409782 ], [ 15427778.04, 5008277.240000000223517 ], [ 15427611.64, 5008018.879999999888241 ], [ 15427463.01, 5007784.200000000186265 ], [ 15427315.27, 5007549.03000000026077 ], [ 15427167.35, 5007313.96999999973923 ], [ 15427018.18, 5007079.660000000149012 ], [ 15426866.67, 5006846.679999999701977 ], [ 15426711.77, 5006615.67 ], [ 15426518.2, 5006339.28000000026077 ], [ 15426317.55, 5006068.059999999590218 ], [ 15426109.04, 5005803.089999999850988 ], [ 15425891.91, 5005545.450000000186265 ], [ 15425665.4, 5005296.230000000447035 ], [ 15425426.92, 5005053.360000000335276 ], [ 15425181.68, 5004817.160000000149012 ], [ 15424932.95, 5004584.160000000149012 ] ] } },
{ "type": "Feature", "properties": { "type": 97 }, "geometry": { "type": "LineString", "coordinates": [ [ 15423761.02, 5012940.58 ], [ 15423662.67, 5012697.889999999664724 ], [ 15423563.56, 5012455.67 ], [ 15423462.9, 5012214.320000000298023 ], [ 15423359.87, 5011974.200000000186265 ], [ 15423253.68, 5011735.71 ], [ 15423143.51, 5011499.21999999973923 ], [ 15423028.57, 5011265.110000000335276 ], [ 15422885.86, 5010991.860000000335276 ], [ 15422736.43, 5010722.190000000409782 ], [ 15422581.22, 5010455.559999999590218 ], [ 15422421.2, 5010191.46999999973923 ], [ 15422257.32, 5009929.370000000111759 ], [ 15422090.52, 5009668.75 ], [ 15421921.76, 5009409.070000000298023 ], [ 15421752.0, 5009149.820000000298023 ] ] } },
{ "type": "Feature", "properties": { "type": 98 }, "geometry": { "type": "LineString", "coordinates": [ [ 15426439.71, 5012417.0 ], [ 15426210.22, 5012156.589999999850988 ], [ 15425981.66, 5011895.379999999888241 ], [ 15425754.85, 5011632.440000000409782 ], [ 15425530.57, 5011366.809999999590218 ], [ 15425309.64, 5011097.559999999590218 ], [ 15425118.02, 5010857.83 ], [ 15424925.79, 5010618.79 ], [ 15424728.93, 5010384.429999999701977 ], [ 15424523.39, 5010158.730000000447035 ], [ 15424305.13, 5009945.67 ], [ 15424083.35, 5009755.389999999664724 ], [ 15423856.74, 5009570.33 ], [ 15423635.46, 5009380.200000000186265 ], [ 15423397.96, 5009145.440000000409782 ], [ 15423177.8, 5008894.08 ], [ 15422971.49, 5008629.400000000372529 ], [ 15422775.54, 5008354.71999999973923 ], [ 15422586.45, 5008073.320000000298023 ], [ 15422400.75, 5007788.5 ] ] } },
{ "type": "Feature", "properties": { "type": 99 }, "geometry": { "type": "LineString", "coordinates": [ [ 15423907.51, 5007369.629999999888241 ], [ 15424153.07, 5007453.360000000335276 ], [ 15424398.32, 5007537.660000000149012 ], [ 15424643.07, 5007623.179999999701977 ], [ 15424887.13, 5007710.519999999552965 ], [ 15425130.31, 5007800.33 ], [ 15425372.42, 5007893.21999999973923 ], [ 15425635.09, 5007999.28000000026077 ], [ 15425894.5, 5008112.809999999590218 ], [ 15426149.23, 5008236.96 ], [ 15426397.86, 5008374.92 ], [ 15426659.87, 5008538.809999999590218 ], [ 15426921.85, 5008699.879999999888241 ], [ 15427193.09, 5008835.67 ], [ 15427399.32, 5008907.639999999664724 ], [ 15427613.12, 5008959.53000000026077 ], [ 15427832.62, 5008996.389999999664724 ], [ 15428055.98, 5009023.240000000223517 ], [ 15428281.31, 5009045.110000000335276 ] ] } },
{ "type": "Feature", "properties": { "type": 100 }, "geometry": { "type": "LineString", "coordinates": [ [ 15426607.13, 5011914.360000000335276 ], [ 15426568.88, 5011649.0 ], [ 15426529.44, 5011383.980000000447035 ], [ 15426487.61, 5011119.5 ], [ 15426442.18, 5010855.769999999552965 ], [ 15426391.96, 5010593.03000000026077 ], [ 15426335.73, 5010331.480000000447035 ], [ 15426272.29, 5010071.33 ], [ 15426206.13, 5009828.809999999590218 ], [ 15426137.13, 5009587.009999999776483 ], [ 15426069.83, 5009345.009999999776483 ], [ 15426008.74, 5009101.860000000335276 ], [ 15425958.39, 5008856.610000000335276 ], [ 15425922.32, 5008613.79 ], [ 15425896.06, 5008369.190000000409782 ], [ 15425874.68, 5008123.589999999850988 ] ] } },
{ "type": "Feature", "properties": { "type": 101 }, "geometry": { "type": "LineString", "coordinates": [ [ 15423802.88, 5007767.559999999590218 ], [ 15423844.73, 5009568.690000000409782 ] ] } },
{ "type": "Feature", "properties": { "type": 102 }, "geometry": { "type": "LineString", "coordinates": [ [ 15424556.26, 5006427.179999999701977 ], [ 15424812.22, 5006480.700000000186265 ], [ 15425068.26, 5006532.769999999552965 ], [ 15425324.56, 5006581.929999999701977 ], [ 15425581.3, 5006626.71999999973923 ], [ 15425838.66, 5006665.690000000409782 ], [ 15426096.84, 5006697.400000000372529 ], [ 15426356.0, 5006720.389999999664724 ], [ 15426575.55, 5006732.67 ], [ 15426795.48, 5006741.33 ] ] } },
{ "type": "Feature", "properties": { "type": 103 }, "geometry": { "type": "LineString", "coordinates": [ [ 15426962.89, 5006825.099999999627471 ], [ 15427187.55, 5006791.639999999664724 ], [ 15427411.91, 5006757.360000000335276 ], [ 15427635.77, 5006721.389999999664724 ], [ 15427858.91, 5006682.879999999888241 ], [ 15428081.13, 5006640.940000000409782 ], [ 15428302.24, 5006594.71999999973923 ], [ 15428537.31, 5006539.92 ], [ 15428771.07, 5006480.110000000335276 ], [ 15429003.93, 5006416.110000000335276 ], [ 15429236.3, 5006348.690000000409782 ], [ 15429468.6, 5006278.67 ], [ 15429701.21, 5006206.83 ], [ 15429934.57, 5006133.96999999973923 ], [ 15430200.95, 5006049.79 ], [ 15430465.19, 5005960.400000000372529 ], [ 15430723.88, 5005860.740000000223517 ], [ 15430973.66, 5005745.759999999776483 ], [ 15431211.13, 5005610.379999999888241 ], [ 15431463.88, 5005427.179999999701977 ], [ 15431699.29, 5005218.230000000447035 ], [ 15431920.83, 5004990.690000000409782 ], [ 15432131.93, 5004751.700000000186265 ], [ 15432331.59, 5004512.660000000149012 ], [ 15432526.52, 5004271.309999999590218 ], [ 15432718.96, 5004029.299999999813735 ], [ 15432911.16, 5003788.269999999552965 ], [ 15433105.36, 5003549.860000000335276 ], [ 15433303.81, 5003315.71 ], [ 15433508.74, 5003087.480000000447035 ], [ 15433722.4, 5002866.79 ], [ 15433898.57, 5002697.79 ], [ 15434078.16, 5002531.700000000186265 ] ] } },
{ "type": "Feature", "properties": { "type": 104 }, "geometry": { "type": "LineString", "coordinates": [ [ 15429474.17, 5010322.650000000372529 ], [ 15429486.65, 5010068.809999999590218 ], [ 15429500.43, 5009815.259999999776483 ], [ 15429516.81, 5009562.21999999973923 ], [ 15429537.1, 5009309.910000000149012 ], [ 15429562.59, 5009058.53000000026077 ], [ 15429594.61, 5008808.29 ], [ 15429634.46, 5008559.410000000149012 ], [ 15429683.44, 5008312.089999999850988 ], [ 15429734.95, 5008093.79 ], [ 15429791.28, 5007876.410000000149012 ], [ 15429849.07, 5007659.269999999552965 ], [ 15429904.93, 5007441.71 ], [ 15429955.49, 5007223.03000000026077 ], [ 15430001.03, 5006986.519999999552965 ], [ 15430039.47, 5006741.360000000335276 ], [ 15430039.57, 5006740.650000000372529 ], [ 15430051.57, 5006532.349999999627471 ], [ 15430040.65, 5006323.0 ], [ 15430018.28, 5006113.03000000026077 ] ] } },
{ "type": "Feature", "properties": { "type": 105 }, "geometry": { "type": "LineString", "coordinates": [ [ 15429348.6, 5008144.54 ], [ 15428741.71, 5006531.889999999664724 ] ] } },
{ "type": "Feature", "properties": { "type": 106 }, "geometry": { "type": "LineString", "coordinates": [ [ 15428406.88, 5005568.5 ], [ 15428595.22, 5006490.009999999776483 ] ] } },
{ "type": "Feature", "properties": { "type": 107 }, "geometry": { "type": "LineString", "coordinates": [ [ 15430918.15, 5010846.240000000223517 ], [ 15430880.02, 5010613.370000000111759 ], [ 15430842.91, 5010380.5 ], [ 15430807.87, 5010147.519999999552965 ], [ 15430775.91, 5009914.349999999627471 ], [ 15430748.08, 5009680.879999999888241 ], [ 15430725.39, 5009447.019999999552965 ], [ 15430708.87, 5009212.650000000372529 ], [ 15430698.89, 5008961.639999999664724 ], [ 15430696.42, 5008710.299999999813735 ], [ 15430700.75, 5008458.759999999776483 ], [ 15430711.15, 5008207.17 ], [ 15430726.92, 5007955.650000000372529 ], [ 15430747.33, 5007704.349999999627471 ], [ 15430771.66, 5007453.410000000149012 ], [ 15430798.78, 5007206.929999999701977 ], [ 15430828.56, 5006961.019999999552965 ], [ 15430860.56, 5006715.570000000298023 ], [ 15430894.33, 5006470.450000000186265 ], [ 15430929.43, 5006225.570000000298023 ], [ 15430965.42, 5005980.799999999813735 ], [ 15431001.86, 5005736.04 ] ] } },
{ "type": "Feature", "properties": { "type": 108 }, "geometry": { "type": "LineString", "coordinates": [ [ 15430290.33, 5007746.610000000335276 ], [ 15430457.75, 5005987.370000000111759 ] ] } },
{ "type": "Feature", "properties": { "type": 109 }, "geometry": { "type": "LineString", "coordinates": [ [ 15430604.24, 5005819.820000000298023 ], [ 15430583.31, 5004374.71999999973923 ] ] } },
{ "type": "Feature", "properties": { "type": 110 }, "geometry": { "type": "LineString", "coordinates": [ [ 15431085.57, 5004982.08 ], [ 15430913.43, 5004767.570000000298023 ], [ 15430742.52, 5004552.299999999813735 ], [ 15430573.97, 5004335.379999999888241 ], [ 15430408.91, 5004115.92 ], [ 15430248.48, 5003893.019999999552965 ], [ 15430106.22, 5003685.519999999552965 ], [ 15429967.28, 5003475.740000000223517 ], [ 15429829.93, 5003264.71999999973923 ] ] } },
{ "type": "Feature", "properties": { "type": 111 }, "geometry": { "type": "LineString", "coordinates": [ [ 15427067.53, 5006762.269999999552965 ], [ 15427171.49, 5006496.08 ], [ 15427276.63, 5006230.54 ], [ 15427384.2, 5005966.150000000372529 ], [ 15427495.45, 5005703.42 ], [ 15427611.64, 5005442.839999999850988 ], [ 15427734.02, 5005183.870000000111759 ], [ 15427861.29, 5004927.259999999776483 ], [ 15427992.25, 5004672.379999999888241 ], [ 15428125.68, 5004418.589999999850988 ], [ 15428260.38, 5004165.29 ] ] } },
{ "type": "Feature", "properties": { "type": 112 }, "geometry": { "type": "LineString", "coordinates": [ [ 15434705.98, 5010741.519999999552965 ], [ 15434523.16, 5010501.21 ], [ 15434341.08, 5010260.410000000149012 ], [ 15434160.46, 5010018.549999999813735 ], [ 15433981.99, 5009775.04 ], [ 15433806.4, 5009529.299999999813735 ], [ 15433634.37, 5009280.740000000223517 ], [ 15433466.62, 5009028.78000000026077 ], [ 15433303.86, 5008772.839999999850988 ], [ 15433172.23, 5008555.25 ], [ 15433046.35, 5008334.339999999850988 ], [ 15432927.92, 5008109.809999999590218 ], [ 15432818.62, 5007881.370000000111759 ], [ 15432720.14, 5007648.71 ], [ 15432634.18, 5007411.519999999552965 ], [ 15432557.36, 5007155.150000000372529 ], [ 15432491.05, 5006895.370000000111759 ], [ 15432429.66, 5006633.929999999701977 ], [ 15432367.62, 5006372.570000000298023 ], [ 15432299.35, 5006113.03000000026077 ], [ 15432230.71, 5005887.53000000026077 ], [ 15432154.84, 5005664.410000000149012 ], [ 15432073.52, 5005443.03000000026077 ], [ 15431988.55, 5005222.78000000026077 ], [ 15431901.73, 5005003.019999999552965 ] ] } },
{ "type": "Feature", "properties": { "type": 113 }, "geometry": { "type": "LineString", "coordinates": [ [ 15429453.24, 5004165.29 ], [ 15429507.35, 5004373.79 ], [ 15429558.64, 5004582.610000000335276 ], [ 15429604.32, 5004792.200000000186265 ], [ 15429641.58, 5005003.019999999552965 ], [ 15429670.86, 5005239.53000000026077 ], [ 15429688.99, 5005477.490000000223517 ], [ 15429698.75, 5005716.58 ], [ 15429702.94, 5005956.450000000186265 ], [ 15429704.37, 5006196.799999999813735 ] ] } },
{ "type": "Feature", "properties": { "type": 114 }, "geometry": { "type": "LineString", "coordinates": [ [ 15430039.2, 5004395.660000000149012 ], [ 15430050.91, 5004599.849999999627471 ], [ 15430062.11, 5004803.990000000223517 ], [ 15430072.33, 5005008.160000000149012 ], [ 15430081.06, 5005212.46 ], [ 15430088.11, 5005421.860000000335276 ], [ 15430093.6, 5005631.25 ], [ 15430098.05, 5005840.67 ], [ 15430101.98, 5006050.200000000186265 ] ] } },
{ "type": "Feature", "properties": { "type": 115 }, "geometry": { "type": "LineString", "coordinates": [ [ 15431964.51, 5009673.410000000149012 ], [ 15431960.54, 5009431.980000000447035 ], [ 15431957.84, 5009190.730000000447035 ], [ 15431957.7, 5008949.679999999701977 ], [ 15431961.4, 5008708.900000000372529 ], [ 15431970.22, 5008468.429999999701977 ], [ 15431985.44, 5008228.309999999590218 ], [ 15432009.0, 5007976.610000000335276 ], [ 15432038.23, 5007725.370000000111759 ], [ 15432070.32, 5007474.320000000298023 ], [ 15432102.49, 5007223.190000000409782 ], [ 15432131.93, 5006971.71 ], [ 15432153.81, 5006750.089999999850988 ], [ 15432172.27, 5006528.259999999776483 ], [ 15432188.15, 5006306.240000000223517 ], [ 15432202.32, 5006084.049999999813735 ], [ 15432215.64, 5005861.700000000186265 ] ] } },
{ "type": "Feature", "properties": { "type": 120 }, "geometry": { "type": "LineString", "coordinates": [ [ 15431880.8, 5004437.549999999813735 ], [ 15431830.79, 5004181.480000000447035 ], [ 15431771.22, 5003929.03000000026077 ], [ 15431692.46, 5003683.589999999850988 ], [ 15431606.15, 5003483.889999999664724 ], [ 15431506.23, 5003289.309999999590218 ], [ 15431399.47, 5003097.17 ] ] } },
{ "type": "Feature", "properties": { "type": 121 }, "geometry": { "type": "LineString", "coordinates": [ [ 15432194.71, 5004081.509999999776483 ], [ 15432320.27, 5002594.53000000026077 ] ] } },
{ "type": "Feature", "properties": { "type": 124 }, "geometry": { "type": "LineString", "coordinates": [ [ 15432257.49, 5002615.46999999973923 ], [ 15432246.1, 5002363.509999999776483 ], [ 15432233.38, 5002111.78000000026077 ], [ 15432217.98, 5001860.370000000111759 ], [ 15432198.56, 5001609.370000000111759 ], [ 15432173.78, 5001358.870000000111759 ], [ 15432146.68, 5001136.71 ], [ 15432116.39, 5000914.950000000186265 ], [ 15432085.0, 5000693.259999999776483 ], [ 15432054.6, 5000471.339999999850988 ], [ 15432027.29, 5000248.870000000111759 ], [ 15432006.97, 5000046.71999999973923 ], [ 15431992.5, 4999844.240000000223517 ], [ 15431985.44, 4999641.509999999776483 ], [ 15431987.07, 4999426.769999999552965 ], [ 15431996.27, 4999212.139999999664724 ], [ 15432010.52, 4998997.519999999552965 ], [ 15432027.29, 4998782.83 ] ] } },
{ "type": "Feature", "properties": { "type": 129 }, "geometry": { "type": "LineString", "coordinates": [ [ 15425351.49, 5003976.799999999813735 ], [ 15425159.55, 5003739.150000000372529 ], [ 15424973.28, 5003498.200000000186265 ], [ 15424798.23, 5003250.46 ], [ 15424639.97, 5002992.46 ], [ 15424508.09, 5002736.179999999701977 ], [ 15424387.97, 5002472.990000000223517 ], [ 15424271.01, 5002208.089999999850988 ], [ 15424148.6, 5001946.679999999701977 ], [ 15424012.15, 5001693.96 ], [ 15423840.0, 5001433.28000000026077 ], [ 15423645.23, 5001187.53000000026077 ], [ 15423431.9, 5000954.83 ], [ 15423204.06, 5000733.33 ], [ 15422965.79, 5000521.129999999888241 ], [ 15422704.43, 5000300.889999999664724 ], [ 15422446.42, 5000080.160000000149012 ], [ 15422202.2, 4999849.54 ], [ 15421982.2, 4999599.620000000111759 ], [ 15421812.82, 4999355.589999999850988 ], [ 15421663.67, 4999095.480000000447035 ], [ 15421527.3, 4998825.660000000149012 ], [ 15421396.24, 4998552.450000000186265 ], [ 15421283.69, 4998320.21 ], [ 15421170.32, 4998089.639999999664724 ], [ 15421056.73, 4997860.009999999776483 ], [ 15420943.5, 4997630.570000000298023 ], [ 15420831.21, 4997400.559999999590218 ], [ 15420705.78, 4997139.150000000372529 ], [ 15420581.3, 4996876.990000000223517 ], [ 15420456.56, 4996614.759999999776483 ], [ 15420330.38, 4996353.129999999888241 ], [ 15420201.58, 4996092.759999999776483 ], [ 15420068.96, 4995834.320000000298023 ], [ 15419931.33, 4995578.480000000447035 ], [ 15419813.17, 4995369.769999999552965 ], [ 15419690.41, 4995163.839999999850988 ], [ 15419562.55, 4994961.04 ], [ 15419429.08, 4994761.690000000409782 ], [ 15419261.45, 4994526.700000000186265 ], [ 15419089.57, 4994294.75 ], [ 15418917.79, 4994063.0 ], [ 15418750.47, 4993828.639999999664724 ], [ 15418591.99, 4993588.860000000335276 ], [ 15418460.65, 4993368.309999999590218 ], [ 15418338.19, 4993142.429999999701977 ], [ 15418222.82, 4992912.28000000026077 ], [ 15418112.76, 4992678.900000000372529 ], [ 15418006.21, 4992443.320000000298023 ], [ 15417901.39, 4992206.589999999850988 ] ] } },
{ "type": "Feature", "properties": { "type": 130 }, "geometry": { "type": "LineString", "coordinates": [ [ 15423488.97, 5000981.889999999664724 ], [ 15423728.25, 5000969.549999999813735 ], [ 15423967.36, 5000957.179999999701977 ], [ 15424206.22, 5000944.67 ], [ 15424444.73, 5000931.950000000186265 ], [ 15424682.79, 5000918.929999999701977 ], [ 15424920.31, 5000905.509999999776483 ], [ 15425157.2, 5000891.620000000111759 ], [ 15425393.35, 5000877.17 ], [ 15425642.51, 5000861.129999999888241 ], [ 15425891.08, 5000843.929999999701977 ], [ 15426139.52, 5000825.049999999813735 ], [ 15426388.29, 5000803.940000000409782 ], [ 15426637.86, 5000780.099999999627471 ], [ 15426888.7, 5000752.990000000223517 ], [ 15427141.28, 5000722.08 ], [ 15427396.05, 5000686.860000000335276 ], [ 15427653.49, 5000646.79 ], [ 15427899.56, 5000602.839999999850988 ], [ 15428141.94, 5000547.610000000335276 ], [ 15428374.3, 5000474.570000000298023 ], [ 15428590.29, 5000377.17 ], [ 15428783.57, 5000248.870000000111759 ], [ 15428964.76, 5000068.519999999552965 ], [ 15429120.07, 4999856.5 ], [ 15429258.85, 4999625.990000000223517 ], [ 15429390.46, 4999390.190000000409782 ], [ 15429508.16, 4999184.17 ], [ 15429626.89, 4998982.46 ], [ 15429746.22, 4998782.83 ] ] } },
{ "type": "Feature", "properties": { "type": 131 }, "geometry": { "type": "LineString", "coordinates": [ [ 15431169.27, 5001316.980000000447035 ], [ 15431147.3, 5001075.769999999552965 ], [ 15431124.91, 5000834.690000000409782 ], [ 15431101.69, 5000593.75 ], [ 15431077.21, 5000352.96 ], [ 15431051.05, 5000112.339999999850988 ], [ 15431022.78, 4999871.879999999888241 ], [ 15430992.29, 4999632.71 ], [ 15430959.81, 4999393.860000000335276 ], [ 15430925.83, 4999155.230000000447035 ], [ 15430890.85, 4998916.679999999701977 ], [ 15430855.37, 4998678.110000000335276 ] ] } },
{ "type": "Feature", "properties": { "type": 135 }, "geometry": { "type": "LineString", "coordinates": [ [ 15421312.53, 5002343.21 ], [ 15421175.14, 5002124.480000000447035 ], [ 15421043.85, 5001903.96 ], [ 15420924.76, 5001679.71 ], [ 15420823.95, 5001449.79 ], [ 15420747.5, 5001212.259999999776483 ], [ 15420705.94, 5001012.519999999552965 ], [ 15420678.63, 5000808.559999999590218 ], [ 15420659.59, 5000602.25 ], [ 15420642.86, 5000395.46999999973923 ], [ 15420623.91, 5000192.160000000149012 ], [ 15420602.59, 4999989.92 ], [ 15420580.08, 4999788.110000000335276 ] ] } },
{ "type": "Feature", "properties": { "type": 136 }, "geometry": { "type": "LineString", "coordinates": [ [ 15422923.93, 5001631.129999999888241 ], [ 15422995.12, 5001855.83 ], [ 15423064.19, 5002080.83 ], [ 15423129.06, 5002306.570000000298023 ], [ 15423187.64, 5002533.509999999776483 ], [ 15423237.84, 5002762.08 ], [ 15423281.86, 5003016.83 ], [ 15423315.17, 5003273.480000000447035 ], [ 15423339.93, 5003531.660000000149012 ], [ 15423358.28, 5003791.03000000026077 ], [ 15423372.37, 5004051.21999999973923 ], [ 15423384.33, 5004311.889999999664724 ] ] } },
{ "type": "Feature", "properties": { "type": 137 }, "geometry": { "type": "LineString", "coordinates": [ [ 15425246.86, 5003851.139999999664724 ], [ 15425271.51, 5003620.79 ], [ 15425296.77, 5003390.5 ], [ 15425323.23, 5003160.150000000372529 ], [ 15425351.49, 5002929.629999999888241 ], [ 15425378.55, 5002720.269999999552965 ], [ 15425403.94, 5002510.910000000149012 ], [ 15425424.04, 5002301.46999999973923 ], [ 15425435.2, 5002091.889999999664724 ], [ 15425433.84, 5001853.160000000149012 ], [ 15425419.44, 5001614.46 ], [ 15425395.25, 5001375.75 ], [ 15425364.53, 5001136.980000000447035 ], [ 15425330.57, 5000898.110000000335276 ] ] } },
{ "type": "Feature", "properties": { "type": 138 }, "geometry": { "type": "LineString", "coordinates": [ [ 15426272.29, 5003285.660000000149012 ], [ 15426268.15, 5003034.259999999776483 ], [ 15426263.58, 5002782.96 ], [ 15426258.13, 5002531.700000000186265 ], [ 15426251.37, 5002280.379999999888241 ], [ 15426243.36, 5002039.389999999664724 ], [ 15426234.01, 5001798.509999999776483 ], [ 15426223.59, 5001557.71 ], [ 15426212.37, 5001316.940000000409782 ], [ 15426200.61, 5001076.150000000372529 ], [ 15426188.59, 5000835.28000000026077 ] ] } },
{ "type": "Feature", "properties": { "type": 139 }, "geometry": { "type": "LineString", "coordinates": [ [ 15430227.55, 5002636.42 ], [ 15430069.21, 5002427.480000000447035 ], [ 15429912.83, 5002217.429999999701977 ], [ 15429760.28, 5002005.049999999813735 ], [ 15429613.43, 5001789.08 ], [ 15429474.17, 5001568.299999999813735 ], [ 15429335.62, 5001327.660000000149012 ], [ 15429204.31, 5001082.620000000111759 ], [ 15429076.55, 5000835.28000000026077 ] ] } },
{ "type": "Feature", "properties": { "type": 151 }, "geometry": { "type": "LineString", "coordinates": [ [ 15427779.06, 4999473.96 ], [ 15426858.26, 5000206.980000000447035 ] ] } }
]
}
